{
  "type": "FeatureCollection",
  "features": [
    {
      "type": "Feature",
      "properties": {
        "norad_id": 36258,
        "name": "FENGYUN 1C DEB",
        "group": "fengyun-1c-debris",
        "lat": -14.783980704986664,
        "lon": 29.301082598132435,
        "alt_km": 692.26823944023,
        "timestamp": "2025-12-22T05:49:03.788243+00:00",
        "meta_object_name": "FENGYUN 1C DEB",
        "meta_object_id": "1999-025DWK",
        "meta_epoch": "2025-12-21T20:07:00.505920",
        "meta_mean_motion": 14.74890959,
        "meta_eccentricity": 0.0173684,
        "meta_inclination": 99.0851,
        "meta_ra_of_asc_node": 26.4274,
        "meta_arg_of_pericenter": 97.5122,
        "meta_mean_anomaly": 264.5852,
        "meta_ephemeris_type": 0,
        "meta_classification_type": "U",
        "meta_norad_cat_id": 36258,
        "meta_element_set_no": 999,
        "meta_rev_at_epoch": 90956,
        "meta_bstar": 0.00022455,
        "meta_mean_motion_dot": 1.849e-05,
        "meta_mean_motion_ddot": 0,
        "tle_line1": "1 36258U 99025DWK 25355.83820030  .00001849  00000+0  22455-3 0  9995",
        "tle_line2": "2 36258  99.0851  26.4274 0173684  97.5122 264.5852 14.74890959909565"
      },
      "geometry": {
        "type": "Point",
        "coordinates": [
          29.301082598132435,
          -14.783980704986664
        ]
      }
    },
    {
      "type": "Feature",
      "properties": {
        "norad_id": 36260,
        "name": "FENGYUN 1C DEB",
        "group": "fengyun-1c-debris",
        "lat": -80.3906644362083,
        "lon": 113.95246163290003,
        "alt_km": 840.5622365277413,
        "timestamp": "2025-12-22T05:49:03.788255+00:00",
        "meta_object_name": "FENGYUN 1C DEB",
        "meta_object_id": "1999-025DWM",
        "meta_epoch": "2025-12-19T18:52:50.261376",
        "meta_mean_motion": 14.15377772,
        "meta_eccentricity": 0.00151871,
        "meta_inclination": 98.6611,
        "meta_ra_of_asc_node": 355.7636,
        "meta_arg_of_pericenter": 228.05,
        "meta_mean_anomaly": 131.9381,
        "meta_ephemeris_type": 0,
        "meta_classification_type": "U",
        "meta_norad_cat_id": 36260,
        "meta_element_set_no": 999,
        "meta_rev_at_epoch": 87908,
        "meta_bstar": 0.00013548076,
        "meta_mean_motion_dot": 2.22e-06,
        "meta_mean_motion_ddot": 0,
        "tle_line1": "1 36260U 99025DWM 25353.78669284  .00000222  00000+0  13548-3 0  9999",
        "tle_line2": "2 36260  98.6611 355.7636 0015187 228.0500 131.9381 14.15377772879086"
      },
      "geometry": {
        "type": "Point",
        "coordinates": [
          113.95246163290003,
          -80.3906644362083
        ]
      }
    },
    {
      "type": "Feature",
      "properties": {
        "norad_id": 36261,
        "name": "FENGYUN 1C DEB",
        "group": "fengyun-1c-debris",
        "lat": 15.658688416794476,
        "lon": 72.93748327372222,
        "alt_km": 1174.941075562222,
        "timestamp": "2025-12-22T05:49:03.788266+00:00",
        "meta_object_name": "FENGYUN 1C DEB",
        "meta_object_id": "1999-025DWN",
        "meta_epoch": "2025-12-20T22:42:11.655072",
        "meta_mean_motion": 13.45487561,
        "meta_eccentricity": 0.0355718,
        "meta_inclination": 101.3649,
        "meta_ra_of_asc_node": 248.2378,
        "meta_arg_of_pericenter": 56.2149,
        "meta_mean_anomaly": 307.2324,
        "meta_ephemeris_type": 0,
        "meta_classification_type": "U",
        "meta_norad_cat_id": 36261,
        "meta_element_set_no": 999,
        "meta_rev_at_epoch": 84543,
        "meta_bstar": 0.00050605,
        "meta_mean_motion_dot": 3.86e-06,
        "meta_mean_motion_ddot": 0,
        "tle_line1": "1 36261U 99025DWN 25354.94596823  .00000386  00000+0  50605-3 0  9993",
        "tle_line2": "2 36261 101.3649 248.2378 0355718  56.2149 307.2324 13.45487561845433"
      },
      "geometry": {
        "type": "Point",
        "coordinates": [
          72.93748327372222,
          15.658688416794476
        ]
      }
    },
    {
      "type": "Feature",
      "properties": {
        "norad_id": 36262,
        "name": "FENGYUN 1C DEB",
        "group": "fengyun-1c-debris",
        "lat": 54.41758385985847,
        "lon": 69.73370238109858,
        "alt_km": 817.0342782995094,
        "timestamp": "2025-12-22T05:49:03.788276+00:00",
        "meta_object_name": "FENGYUN 1C DEB",
        "meta_object_id": "1999-025DWP",
        "meta_epoch": "2025-12-20T09:30:11.047680",
        "meta_mean_motion": 14.27815477,
        "meta_eccentricity": 0.00597653,
        "meta_inclination": 98.9612,
        "meta_ra_of_asc_node": 235.0995,
        "meta_arg_of_pericenter": 252.8725,
        "meta_mean_anomaly": 106.5905,
        "meta_ephemeris_type": 0,
        "meta_classification_type": "U",
        "meta_norad_cat_id": 36262,
        "meta_element_set_no": 999,
        "meta_rev_at_epoch": 89606,
        "meta_bstar": 0.00020370681,
        "meta_mean_motion_dot": 4.66e-06,
        "meta_mean_motion_ddot": 0,
        "tle_line1": "1 36262U 99025DWP 25354.39596120  .00000466  00000+0  20371-3 0  9999",
        "tle_line2": "2 36262  98.9612 235.0995 0059765 252.8725 106.5905 14.27815477896063"
      },
      "geometry": {
        "type": "Point",
        "coordinates": [
          69.73370238109858,
          54.41758385985847
        ]
      }
    },
    {
      "type": "Feature",
      "properties": {
        "norad_id": 36263,
        "name": "FENGYUN 1C DEB",
        "group": "fengyun-1c-debris",
        "lat": -6.744983649554751,
        "lon": 56.79363632721534,
        "alt_km": 726.781571631429,
        "timestamp": "2025-12-22T05:49:03.788286+00:00",
        "meta_object_name": "FENGYUN 1C DEB",
        "meta_object_id": "1999-025DWQ",
        "meta_epoch": "2025-12-19T15:29:46.814208",
        "meta_mean_motion": 14.45721747,
        "meta_eccentricity": 0.00358298,
        "meta_inclination": 99.002,
        "meta_ra_of_asc_node": 235.1146,
        "meta_arg_of_pericenter": 244.0353,
        "meta_mean_anomaly": 115.7144,
        "meta_ephemeris_type": 0,
        "meta_classification_type": "U",
        "meta_norad_cat_id": 36263,
        "meta_element_set_no": 999,
        "meta_rev_at_epoch": 88085,
        "meta_bstar": 0.0011248307,
        "meta_mean_motion_dot": 3.967e-05,
        "meta_mean_motion_ddot": 0,
        "tle_line1": "1 36263U 99025DWQ 25353.64568072  .00003967  00000+0  11248-2 0  9993",
        "tle_line2": "2 36263  99.0020 235.1146 0035829 244.0353 115.7144 14.45721747880856"
      },
      "geometry": {
        "type": "Point",
        "coordinates": [
          56.79363632721534,
          -6.744983649554751
        ]
      }
    },
    {
      "type": "Feature",
      "properties": {
        "norad_id": 36267,
        "name": "FENGYUN 1C DEB",
        "group": "fengyun-1c-debris",
        "lat": -55.92570631727545,
        "lon": 110.29579529169834,
        "alt_km": 814.1205010259964,
        "timestamp": "2025-12-22T05:49:03.788296+00:00",
        "meta_object_name": "FENGYUN 1C DEB",
        "meta_object_id": "1999-025DWU",
        "meta_epoch": "2025-12-17T02:18:42.156000",
        "meta_mean_motion": 14.09111328,
        "meta_eccentricity": 0.0126413,
        "meta_inclination": 98.559,
        "meta_ra_of_asc_node": 298.2704,
        "meta_arg_of_pericenter": 197.9977,
        "meta_mean_anomaly": 227.0895,
        "meta_ephemeris_type": 0,
        "meta_classification_type": "U",
        "meta_norad_cat_id": 36267,
        "meta_element_set_no": 999,
        "meta_rev_at_epoch": 86591,
        "meta_bstar": 0.00083999853,
        "meta_mean_motion_dot": 1.528e-05,
        "meta_mean_motion_ddot": 0,
        "tle_line1": "1 36267U 99025DWU 25351.09632125  .00001528  00000+0  84000-3 0  9993",
        "tle_line2": "2 36267  98.5590 298.2704 0126413 197.9977 227.0895 14.09111328865912"
      },
      "geometry": {
        "type": "Point",
        "coordinates": [
          110.29579529169834,
          -55.92570631727545
        ]
      }
    },
    {
      "type": "Feature",
      "properties": {
        "norad_id": 36269,
        "name": "FENGYUN 1C DEB",
        "group": "fengyun-1c-debris",
        "lat": -59.909235296439824,
        "lon": 102.52909071891838,
        "alt_km": 644.331661334556,
        "timestamp": "2025-12-22T05:49:03.788308+00:00",
        "meta_object_name": "FENGYUN 1C DEB",
        "meta_object_id": "1999-025DWW",
        "meta_epoch": "2025-12-14T01:28:51.707712",
        "meta_mean_motion": 14.27043075,
        "meta_eccentricity": 0.02331074,
        "meta_inclination": 99.1079,
        "meta_ra_of_asc_node": 290.0784,
        "meta_arg_of_pericenter": 275.9651,
        "meta_mean_anomaly": 81.5008,
        "meta_ephemeris_type": 0,
        "meta_classification_type": "U",
        "meta_norad_cat_id": 36269,
        "meta_element_set_no": 999,
        "meta_rev_at_epoch": 87735,
        "meta_bstar": 0.00079666975,
        "meta_mean_motion_dot": 2.532e-05,
        "meta_mean_motion_ddot": 0,
        "tle_line1": "1 36269U 99025DWW 25348.06170958  .00002532  00000+0  79667-3 0  9998",
        "tle_line2": "2 36269  99.1079 290.0784 0233107 275.9651  81.5008 14.27043075877359"
      },
      "geometry": {
        "type": "Point",
        "coordinates": [
          102.52909071891838,
          -59.909235296439824
        ]
      }
    }
  ]
}